{
  "norad_id": 41603,
  "name": "LAPAN-A3",
  "history": [
    {
      "epoch": "2026-03-28T23:03:48.253824Z",
      "apogee_km": 474.23500279444033,
      "perigee_km": 462.194734544124,
      "latitude_deg": 1.133280643593616e-05,
      "longitude_deg": -85.54537530260991,
      "height_km": 467.41718271099836,
      "semi_major_axis_km": 6846.351868669282,
      "eccentricity": 0.00087932,
      "inclination_deg": 97.1488,
      "raan_deg": 86.7796,
      "arg_perigee_deg": 310.6064,
      "mean_anomaly_deg": 49.4413,
      "mean_motion_rev_day": 15.32547479
    },
    {
      "epoch": "2026-03-29T03:45:52.245216Z",
      "apogee_km": 474.21282473919655,
      "perigee_km": 462.20570266191953,
      "latitude_deg": -3.702008096732718e-05,
      "longitude_deg": -156.0658676819701,
      "height_km": 467.49062252176566,
      "semi_major_axis_km": 6846.346263700558,
      "eccentricity": 0.0008769,
      "inclination_deg": 97.1488,
      "raan_deg": 86.9688,
      "arg_perigee_deg": 309.7545,
      "mean_anomaly_deg": 50.2924,
      "mean_motion_rev_day": 15.32549361
    },
    {
      "epoch": "2026-03-30T04:50:13.140672Z",
      "apogee_km": 474.118879377138,
      "perigee_km": 462.2323114489818,
      "latitude_deg": 5.2727875873677235e-05,
      "longitude_deg": -172.17343240835285,
      "height_km": 467.8591405883923,
      "semi_major_axis_km": 6846.31259541306,
      "eccentricity": 0.0008681,
      "inclination_deg": 97.1486,
      "raan_deg": 87.978,
      "arg_perigee_deg": 305.3355,
      "mean_anomaly_deg": 54.7076,
      "mean_motion_rev_day": 15.32560666
    },
    {
      "epoch": "2026-03-30T06:24:14.433408Z",
      "apogee_km": 474.11526087562925,
      "perigee_km": 462.2332138707188,
      "latitude_deg": -2.260435484483623e-05,
      "longitude_deg": 164.319835201637,
      "height_km": 467.8807810426166,
      "semi_major_axis_km": 6846.311237373174,
      "eccentricity": 0.00086777,
      "inclination_deg": 97.1486,
      "raan_deg": 88.041,
      "arg_perigee_deg": 305.0797,
      "mean_anomaly_deg": 54.9631,
      "mean_motion_rev_day": 15.32561122
    },
    {
      "epoch": "2026-03-30T14:14:20.809824Z",
      "apogee_km": 474.0906439736618,
      "perigee_km": 462.23613792072865,
      "latitude_deg": 5.811354381087635e-05,
      "longitude_deg": 46.786880801142736,
      "height_km": 467.9977535580682,
      "semi_major_axis_km": 6846.300390947195,
      "eccentricity": 0.00086576,
      "inclination_deg": 97.1485,
      "raan_deg": 88.3564,
      "arg_perigee_deg": 303.6763,
      "mean_anomaly_deg": 56.3654,
      "mean_motion_rev_day": 15.32564764
    },
    {
      "epoch": "2026-03-30T22:04:27.137856Z",
      "apogee_km": 474.0658428212164,
      "perigee_km": 462.23956198928045,
      "latitude_deg": 2.5935949113217806e-05,
      "longitude_deg": -70.74585736675954,
      "height_km": 468.12100270861737,
      "semi_major_axis_km": 6846.289702405248,
      "eccentricity": 0.0008637,
      "inclination_deg": 97.1484,
      "raan_deg": 88.6718,
      "arg_perigee_deg": 302.2211,
      "mean_anomaly_deg": 57.8194,
      "mean_motion_rev_day": 15.32568353
    },
    {
      "epoch": "2026-03-31T21:34:45.810048Z",
      "apogee_km": 473.99349352711397,
      "perigee_km": 462.2562621637353,
      "latitude_deg": -5.140530702491254e-06,
      "longitude_deg": -63.342676653151614,
      "height_km": 468.4885333509708,
      "semi_major_axis_km": 6846.261877845424,
      "eccentricity": 0.0008572,
      "inclination_deg": 97.1485,
      "raan_deg": 89.6181,
      "arg_perigee_deg": 298.028,
      "mean_anomaly_deg": 62.0095,
      "mean_motion_rev_day": 15.32577696
    },
    {
      "epoch": "2026-04-01T21:05:03.947424Z",
      "apogee_km": 473.91631329890333,
      "perigee_km": 462.2859239829568,
      "latitude_deg": 5.763184496658151e-06,
      "longitude_deg": -55.937366804434596,
      "height_km": 468.88541303584145,
      "semi_major_axis_km": 6846.23811864093,
      "eccentricity": 0.0008494,
      "inclination_deg": 97.1485,
      "raan_deg": 90.5643,
      "arg_perigee_deg": 293.6982,
      "mean_anomaly_deg": 66.3369,
      "mean_motion_rev_day": 15.32585674
    },
    {
      "epoch": "2026-04-02T20:35:21.547392Z",
      "apogee_km": 473.8519180319345,
      "perigee_km": 462.2845696519389,
      "latitude_deg": -3.593999705622512e-05,
      "longitude_deg": -48.529605539737126,
      "height_km": 469.2657716513065,
      "semi_major_axis_km": 6846.205243841936,
      "eccentricity": 0.0008448,
      "inclination_deg": 97.1486,
      "raan_deg": 91.5107,
      "arg_perigee_deg": 289.4323,
      "mean_anomaly_deg": 70.6006,
      "mean_motion_rev_day": 15.32596713
    },
    {
      "epoch": "2026-04-02T22:09:22.664736Z",
      "apogee_km": 473.8396832421204,
      "perigee_km": 462.2774174249853,
      "latitude_deg": 8.36843636509062e-05,
      "longitude_deg": -72.0355294744926,
      "height_km": 469.28430515738853,
      "semi_major_axis_km": 6846.195550333553,
      "eccentricity": 0.00084443,
      "inclination_deg": 97.1486,
      "raan_deg": 91.5738,
      "arg_perigee_deg": 289.1449,
      "mean_anomaly_deg": 70.888,
      "mean_motion_rev_day": 15.32599968
    },
    {
      "epoch": "2026-04-03T21:39:39.570048Z",
      "apogee_km": 473.778755107639,
      "perigee_km": 462.2703575314654,
      "latitude_deg": 5.635084910448165e-05,
      "longitude_deg": -64.62486844070642,
      "height_km": 469.67070025600174,
      "semi_major_axis_km": 6846.161556319552,
      "eccentricity": 0.0008405,
      "inclination_deg": 97.1489,
      "raan_deg": 92.5202,
      "arg_perigee_deg": 284.8603,
      "mean_anomaly_deg": 75.1709,
      "mean_motion_rev_day": 15.32611383
    },
    {
      "epoch": "2026-04-04T07:03:46.114272Z",
      "apogee_km": 473.74849813006495,
      "perigee_km": 462.2733957103146,
      "latitude_deg": -6.373346450402104e-06,
      "longitude_deg": 154.34035255726874,
      "height_km": 469.83159797450134,
      "semi_major_axis_km": 6846.1479469201895,
      "eccentricity": 0.00083807,
      "inclination_deg": 97.149,
      "raan_deg": 92.8988,
      "arg_perigee_deg": 283.1089,
      "mean_anomaly_deg": 76.9218,
      "mean_motion_rev_day": 15.32615953
    },
    {
      "epoch": "2026-04-05T14:24:07.363008Z",
      "apogee_km": 473.6981707738023,
      "perigee_km": 462.25147180860404,
      "latitude_deg": -5.129946793725204e-05,
      "longitude_deg": 44.226663336482495,
      "height_km": 470.35844884197155,
      "semi_major_axis_km": 6846.111821291202,
      "eccentricity": 0.000836,
      "inclination_deg": 97.1492,
      "raan_deg": 94.1607,
      "arg_perigee_deg": 277.4137,
      "mean_anomaly_deg": 82.6155,
      "mean_motion_rev_day": 15.32628084
    },
    {
      "epoch": "2026-04-05T20:40:11.498880Z",
      "apogee_km": 473.69192114056113,
      "perigee_km": 462.24112838504243,
      "latitude_deg": 3.2684578511030706e-06,
      "longitude_deg": -49.79558677452848,
      "height_km": 470.4604110450322,
      "semi_major_axis_km": 6846.1035247628015,
      "eccentricity": 0.0008363,
      "inclination_deg": 97.1493,
      "raan_deg": 94.4131,
      "arg_perigee_deg": 276.3,
      "mean_anomaly_deg": 83.729,
      "mean_motion_rev_day": 15.3263087
    },
    {
      "epoch": "2026-04-06T06:04:17.635296Z",
      "apogee_km": 473.68094716219275,
      "perigee_km": 462.23003593897556,
      "latitude_deg": 8.265756122036173e-05,
      "longitude_deg": 169.1713197600638,
      "height_km": 470.6269403089656,
      "semi_major_axis_km": 6846.092491550584,
      "eccentricity": 0.00083631,
      "inclination_deg": 97.1494,
      "raan_deg": 94.7917,
      "arg_perigee_deg": 274.5155,
      "mean_anomaly_deg": 85.5133,
      "mean_motion_rev_day": 15.32634575
    },
    {
      "epoch": "2026-04-07T21:14:42.328032Z",
      "apogee_km": 473.63400375360925,
      "perigee_km": 462.18878005202623,
      "latitude_deg": -7.100004745575019e-06,
      "longitude_deg": -58.462859429588676,
      "height_km": 471.3296224642428,
      "semi_major_axis_km": 6846.0483919028175,
      "eccentricity": 0.0008359,
      "inclination_deg": 97.1497,
      "raan_deg": 96.3692,
      "arg_perigee_deg": 267.0367,
      "mean_anomaly_deg": 92.9919,
      "mean_motion_rev_day": 15.32649384
    },
    {
      "epoch": "2026-04-08T14:28:52.795776Z",
      "apogee_km": 473.6235455157321,
      "perigee_km": 462.1687628421596,
      "latitude_deg": -5.309553402189759e-05,
      "longitude_deg": 42.9796612416988,
      "height_km": 471.6307804372678,
      "semi_major_axis_km": 6846.033154178946,
      "eccentricity": 0.0008366,
      "inclination_deg": 97.1497,
      "raan_deg": 97.0632,
      "arg_perigee_deg": 263.8643,
      "mean_anomaly_deg": 96.1646,
      "mean_motion_rev_day": 15.32654501
    },
    {
      "epoch": "2026-04-09T20:15:10.389600Z",
      "apogee_km": 473.6124047345993,
      "perigee_km": 462.1152309611052,
      "latitude_deg": 6.80339471919773e-06,
      "longitude_deg": -43.6175317799682,
      "height_km": 472.133549668338,
      "semi_major_axis_km": 6846.000817847852,
      "eccentricity": 0.0008397,
      "inclination_deg": 97.1496,
      "raan_deg": 98.262,
      "arg_perigee_deg": 258.489,
      "mean_anomaly_deg": 101.541,
      "mean_motion_rev_day": 15.3266536
    },
    {
      "epoch": "2026-04-10T11:55:19.335648Z",
      "apogee_km": 473.60872745270444,
      "perigee_km": 462.0841988908014,
      "latitude_deg": -7.841940095833482e-06,
      "longitude_deg": 81.33258401432553,
      "height_km": 472.412279450732,
      "semi_major_axis_km": 6845.983463171752,
      "eccentricity": 0.0008417,
      "inclination_deg": 97.1496,
      "raan_deg": 98.8929,
      "arg_perigee_deg": 255.4954,
      "mean_anomaly_deg": 104.5355,
      "mean_motion_rev_day": 15.32671188
    }
  ]
}